[{"OBJECT_NAME":"STARLINK-30809","OBJECT_ID":"2023-167J","EPOCH":"2026-03-09T05:57:22.549824","MEAN_MOTION":15.26736298,"ECCENTRICITY":0.00011396,"INCLINATION":42.9975,"RA_OF_ASC_NODE":146.2274,"ARG_OF_PERICENTER":269.5807,"MEAN_ANOMALY":90.4914,"EPHEMERIS_TYPE":0,"CLASSIFICATION_TYPE":"U","NORAD_CAT_ID":58183,"ELEMENT_SET_NO":999,"REV_AT_EPOCH":13091,"BSTAR":-3.9801705e-5,"MEAN_MOTION_DOT":-1.327e-5,"MEAN_MOTION_DDOT":0},{"OBJECT_NAME":"H-2A R\/B","OBJECT_ID":"2006-002B","EPOCH":"2026-03-09T22:32:18.942432","MEAN_MOTION":15.16426804,"ECCENTRICITY":0.00518947,"INCLINATION":98.2413,"RA_OF_ASC_NODE":215.9838,"ARG_OF_PERICENTER":240.1322,"MEAN_ANOMALY":119.4746,"EPHEMERIS_TYPE":0,"CLASSIFICATION_TYPE":"U","NORAD_CAT_ID":28932,"ELEMENT_SET_NO":999,"REV_AT_EPOCH":9447,"BSTAR":0.00057792596,"MEAN_MOTION_DOT":0.00011556,"MEAN_MOTION_DDOT":0}]
